CTC1_L_00190001-01
1 42920U 24284GB  26070.40833333  .00000000  00000+0  00000-0 0  9998
2 42920  90.0000   0.0000 0000000   0.0000   0.0000 13.69880518    18
CTC1_L_00190001-02
1 42921U 22618HE  26070.40833333  .00000000  00000+0  00000-0 0  9998
2 42921  90.0000   0.0000 0000000   0.0000  90.0000 13.69880518    18
CTC1_L_00190001-03
1 42922U 24220US  26070.40833333  .00000000  00000+0  00000-0 0  9990
2 42922  90.0000   0.0000 0000000   0.0000 180.0000 13.69880518    19
CTC1_L_00190001-04
1 42923U 23325UP  26070.40833333  .00000000  00000+0  00000-0 0  9996
2 42923  90.0000   0.0000 0000000   0.0000 270.0000 13.69880518    10
CTC1_L_00190002-01
1 42924U 23692GX  26070.40833333  .00000000  00000+0  00000-0 0  9994
2 42924  90.0000  12.0000 0000000   0.0000  12.0000 13.69880518    18
CTC1_L_00190002-02
1 42925U 25199FG  26070.40833333  .00000000  00000+0  00000-0 0  9999
2 42925  90.0000  12.0000 0000000   0.0000 102.0000 13.69880518    19
CTC1_L_00190002-03
1 42926U 24329EW  26070.40833333  .00000000  00000+0  00000-0 0  9994
2 42926  90.0000  12.0000 0000000   0.0000 192.0000 13.69880518    19
CTC1_L_00190002-04
1 42927U 24042GO  26070.40833333  .00000000  00000+0  00000-0 0  9997
2 42927  90.0000  12.0000 0000000   0.0000 282.0000 13.69880518    10
CTC1_L_00190003-01
1 42928U 23725LH  26070.40833333  .00000000  00000+0  00000-0 0  9995
2 42928  90.0000  24.0000 0000000   0.0000  24.0000 13.69880518    18
CTC1_L_00190003-02
1 42929U 24749XS  26070.40833333  .00000000  00000+0  00000-0 0  9993
2 42929  90.0000  24.0000 0000000   0.0000 114.0000 13.69880518    19
CTC1_L_00190003-03
1 42930U 24979QS  26070.40833333  .00000000  00000+0  00000-0 0  9990
2 42930  90.0000  24.0000 0000000   0.0000 204.0000 13.69880518    11
CTC1_L_00190003-04
1 42931U 23788RO  26070.40833333  .00000000  00000+0  00000-0 0  9998
2 42931  90.0000  24.0000 0000000   0.0000 294.0000 13.69880518    11
CTC1_L_00190004-01
1 42932U 23557BJ  26070.40833333  .00000000  00000+0  00000-0 0  9993
2 42932  90.0000  36.0000 0000000   0.0000  36.0000 13.69880518    19
CTC1_L_00190004-02
1 42933U 26551KC  26070.40833333  .00000000  00000+0  00000-0 0  9991
2 42933  90.0000  36.0000 0000000   0.0000 126.0000 13.69880518    10
CTC1_L_00190004-03
1 42934U 26832AS  26070.40833333  .00000000  00000+0  00000-0 0  9994
2 42934  90.0000  36.0000 0000000   0.0000 216.0000 13.69880518    11
CTC1_L_00190004-04
1 42935U 26459SA  26070.40833333  .00000000  00000+0  00000-0 0  9990
2 42935  90.0000  36.0000 0000000   0.0000 306.0000 13.69880518    12
CTC1_L_00190005-01
1 42936U 26996GW  26070.40833333  .00000000  00000+0  00000-0 0  9997
2 42936  90.0000  48.0000 0000000   0.0000  48.0000 13.69880518    19
CTC1_L_00190005-02
1 42937U 24866HQ  26070.40833333  .00000000  00000+0  00000-0 0  9992
2 42937  90.0000  48.0000 0000000   0.0000 138.0000 13.69880518    10
CTC1_L_00190005-03
1 42938U 24137SC  26070.40833333  .00000000  00000+0  00000-0 0  9994
2 42938  90.0000  48.0000 0000000   0.0000 228.0000 13.69880518    11
CTC1_L_00190005-04
1 42939U 24504SY  26070.40833333  .00000000  00000+0  00000-0 0  9993
2 42939  90.0000  48.0000 0000000   0.0000 318.0000 13.69880518    12
CTC1_L_00190006-01
1 42940U 26071Z   26070.40833333  .00000000  00000+0  00000-0 0  9996
2 42940  90.0000  60.0000 0000000   0.0000  60.0000 13.69880518    12
CTC1_L_00190006-02
1 42941U 22807AR  26070.40833333  .00000000  00000+0  00000-0 0  9990
2 42941  90.0000  60.0000 0000000   0.0000 150.0000 13.69880518    13
CTC1_L_00190006-03
1 42942U 25202GD  26070.40833333  .00000000  00000+0  00000-0 0  9993
2 42942  90.0000  60.0000 0000000   0.0000 240.0000 13.69880518    14
CTC1_L_00190006-04
1 42943U 25252JO  26070.40833333  .00000000  00000+0  00000-0 0  9999
2 42943  90.0000  60.0000 0000000   0.0000 330.0000 13.69880518    15
CTC1_L_00190007-01
1 42944U 24358NC  26070.40833333  .00000000  00000+0  00000-0 0  9996
2 42944  90.0000  72.0000 0000000   0.0000  72.0000 13.69880518    12
CTC1_L_00190007-02
1 42945U 24477HA  26070.40833333  .00000000  00000+0  00000-0 0  9999
2 42945  90.0000  72.0000 0000000   0.0000 162.0000 13.69880518    13
CTC1_L_00190007-03
1 42946U 26015HI  26070.40833333  .00000000  00000+0  00000-0 0  9990
2 42946  90.0000  72.0000 0000000   0.0000 252.0000 13.69880518    14
CTC1_L_00190007-04
1 42947U 26462UV  26070.40833333  .00000000  00000+0  00000-0 0  9997
2 42947  90.0000  72.0000 0000000   0.0000 342.0000 13.69880518    15
CTC1_L_00190008-01
1 42948U 26538ZS  26070.40833333  .00000000  00000+0  00000-0 0  9992
2 42948  90.0000  84.0000 0000000   0.0000  84.0000 13.69880518    12
CTC1_L_00190008-02
1 42949U 25607RA  26070.40833333  .00000000  00000+0  00000-0 0  9999
2 42949  90.0000  84.0000 0000000   0.0000 174.0000 13.69880518    13
CTC1_L_00190008-03
1 42950U 25286CV  26070.40833333  .00000000  00000+0  00000-0 0  9994
2 42950  90.0000  84.0000 0000000   0.0000 264.0000 13.69880518    15
CTC1_L_00190008-04
1 42951U 24325SH  26070.40833333  .00000000  00000+0  00000-0 0  9998
2 42951  90.0000  84.0000 0000000   0.0000 354.0000 13.69880518    16
CTC1_L_00190009-01
1 42952U 22424MW  26070.40833333  .00000000  00000+0  00000-0 0  9997
2 42952  90.0000  96.0000 0000000   0.0000  96.0000 13.69880518    13
CTC1_L_00190009-02
1 42953U 22072LZ  26070.40833333  .00000000  00000+0  00000-0 0  9997
2 42953  90.0000  96.0000 0000000   0.0000 186.0000 13.69880518    14
CTC1_L_00190009-03
1 42954U 23570YZ  26070.40833333  .00000000  00000+0  00000-0 0  9992
2 42954  90.0000  96.0000 0000000   0.0000 276.0000 13.69880518    15
CTC1_L_00190009-04
1 42955U 22284UZ  26070.40833333  .00000000  00000+0  00000-0 0  9994
2 42955  90.0000  96.0000 0000000   0.0000   6.0000 13.69880518    17
CTC1_L_00190010-01
1 42956U 25216RB  26070.40833333  .00000000  00000+0  00000-0 0  9993
2 42956  90.0000 108.0000 0000000   0.0000 108.0000 13.69880518    15
CTC1_L_00190010-02
1 42957U 23944ST  26070.40833333  .00000000  00000+0  00000-0 0  9990
2 42957  90.0000 108.0000 0000000   0.0000 198.0000 13.69880518    15
CTC1_L_00190010-03
1 42958U 25207KN  26070.40833333  .00000000  00000+0  00000-0 0  9995
2 42958  90.0000 108.0000 0000000   0.0000 288.0000 13.69880518    16
CTC1_L_00190010-04
1 42959U 23934WF  26070.40833333  .00000000  00000+0  00000-0 0  9991
2 42959  90.0000 108.0000 0000000   0.0000  18.0000 13.69880518    18
CTC1_L_00190011-01
1 42960U 22771PM  26070.40833333  .00000000  00000+0  00000-0 0  9991
2 42960  90.0000 120.0000 0000000   0.0000 120.0000 13.69880518    18
CTC1_L_00190011-02
1 42961U 26256AA  26070.40833333  .00000000  00000+0  00000-0 0  9994
2 42961  90.0000 120.0000 0000000   0.0000 210.0000 13.69880518    19
CTC1_L_00190011-03
1 42962U 22876EL  26070.40833333  .00000000  00000+0  00000-0 0  9999
2 42962  90.0000 120.0000 0000000   0.0000 300.0000 13.69880518    10
CTC1_L_00190011-04
1 42963U 24907DI  26070.40833333  .00000000  00000+0  00000-0 0  9997
2 42963  90.0000 120.0000 0000000   0.0000  30.0000 13.69880518    11
CTC1_L_00190012-01
1 42964U 24126PU  26070.40833333  .00000000  00000+0  00000-0 0  9991
2 42964  90.0000 132.0000 0000000   0.0000 132.0000 13.69880518    18
CTC1_L_00190012-02
1 42965U 24077SB  26070.40833333  .00000000  00000+0  00000-0 0  9997
2 42965  90.0000 132.0000 0000000   0.0000 222.0000 13.69880518    19
CTC1_L_00190012-03
1 42966U 26034MD  26070.40833333  .00000000  00000+0  00000-0 0  9993
2 42966  90.0000 132.0000 0000000   0.0000 312.0000 13.69880518    10
CTC1_L_00190012-04
1 42967U 24932IF  26070.40833333  .00000000  00000+0  00000-0 0  9999
2 42967  90.0000 132.0000 0000000   0.0000  42.0000 13.69880518    11
CTC1_L_00190013-01
1 42968U 24060DB  26070.40833333  .00000000  00000+0  00000-0 0  9992
2 42968  90.0000 144.0000 0000000   0.0000 144.0000 13.69880518    18
CTC1_L_00190013-02
1 42969U 25847RH  26070.40833333  .00000000  00000+0  00000-0 0  9997
2 42969  90.0000 144.0000 0000000   0.0000 234.0000 13.69880518    19
CTC1_L_00190013-03
1 42970U 26551BK  26070.40833333  .00000000  00000+0  00000-0 0  9992
2 42970  90.0000 144.0000 0000000   0.0000 324.0000 13.69880518    11
CTC1_L_00190013-04
1 42971U 25045CQ  26070.40833333  .00000000  00000+0  00000-0 0  9990
2 42971  90.0000 144.0000 0000000   0.0000  54.0000 13.69880518    12
CTC1_L_00190014-01
1 42972U 26273DZ  26070.40833333  .00000000  00000+0  00000-0 0  9995
2 42972  90.0000 156.0000 0000000   0.0000 156.0000 13.69880518    19
CTC1_L_00190014-02
1 42973U 26336PC  26070.40833333  .00000000  00000+0  00000-0 0  9996
2 42973  90.0000 156.0000 0000000   0.0000 246.0000 13.69880518    10
CTC1_L_00190014-03
1 42974U 25433LU  26070.40833333  .00000000  00000+0  00000-0 0  9994
2 42974  90.0000 156.0000 0000000   0.0000 336.0000 13.69880518    11
CTC1_L_00190014-04
1 42975U 25255DG  26070.40833333  .00000000  00000+0  00000-0 0  9997
2 42975  90.0000 156.0000 0000000   0.0000  66.0000 13.69880518    12
CTC1_L_00190015-01
1 42976U 23265KO  26070.40833333  .00000000  00000+0  00000-0 0  9997
2 42976  90.0000 168.0000 0000000   0.0000 168.0000 13.69880518    19
CTC1_L_00190015-02
1 42977U 25687VM  26070.40833333  .00000000  00000+0  00000-0 0  9998
2 42977  90.0000 168.0000 0000000   0.0000 258.0000 13.69880518    10
CTC1_L_00190015-03
1 42978U 23120CR  26070.40833333  .00000000  00000+0  00000-0 0  9999
2 42978  90.0000 168.0000 0000000   0.0000 348.0000 13.69880518    11
CTC1_L_00190015-04
1 42979U 22680FN  26070.40833333  .00000000  00000+0  00000-0 0  9990
2 42979  90.0000 168.0000 0000000   0.0000  78.0000 13.69880518    12
CTC1_L_00190016-01
1 42980U 23162ZX  26070.40833333  .00000000  00000+0  00000-0 0  9998
2 42980  90.0000 180.0000 0000000   0.0000 180.0000 13.69880518    12
CTC1_L_00190016-02
1 42981U 23564UF  26070.40833333  .00000000  00000+0  00000-0 0  9995
2 42981  90.0000 180.0000 0000000   0.0000 270.0000 13.69880518    13
